start=new Date('2021-10-28T00:00:00.000Z').valueOf();
sats=[{"APOAPSIS":"549.722","TLE_LINE1":"1 46785U 20074AY  21300.30903775  .00000623  00000-0  60754-4 0  9990","DECAY_DATE":null,"CLASSIFICATION_TYPE":"U","MEAN_ANOMALY":"108.3332","MEAN_MOTION_DDOT":"0.0000000000000","SITE":"AFETR","ARG_OF_PERICENTER":"251.7262","MEAN_ELEMENT_THEORY":"SGP4","LAUNCH_DATE":"2020-10-24","REF_FRAME":"TEME","NORAD_CAT_ID":"46785","CENTER_NAME":"EARTH","RCS_SIZE":"LARGE","RA_OF_ASC_NODE":"269.0797","COUNTRY_CODE":"US","ECCENTRICITY":"0.00036280","OBJECT_NAME":"STARLINK-1883","MEAN_MOTION":"15.06401481","MEAN_MOTION_DOT":"0.00000623","ELEMENT_SET_NO":"999","INCLINATION":"53.0558","EPHEMERIS_TYPE":"0","TIME_SYSTEM":"UTC","TLE_LINE2":"2 46785  53.0558 269.0797 0003628 251.7262 108.3332 15.06401481 56508","PERIOD":"95.592","OBJECT_ID":"2020-074AY","SEMIMAJOR_AXIS":"6925.344","GP_ID":"188273570","FILE":"3187107","PERIAPSIS":"544.697","REV_AT_EPOCH":"5650","BSTAR":"0.00006075400000","OBJECT_TYPE":"PAYLOAD","EPOCH":"2021-10-27T07:25:00.861600"},{"FILE":"3187727","GP_ID":"188287170","BSTAR":"0.00005245600000","OBJECT_TYPE":"PAYLOAD","EPOCH":"2021-10-27T13:18:00.224064","REV_AT_EPOCH":"5650","PERIAPSIS":"542.672","MEAN_MOTION":"15.06400217","ELEMENT_SET_NO":"999","MEAN_MOTION_DOT":"0.00000498","ECCENTRICITY":"0.00065570","OBJECT_NAME":"STARLINK-1893","INCLINATION":"53.0530","TIME_SYSTEM":"UTC","EPHEMERIS_TYPE":"0","OBJECT_ID":"2020-074AZ","SEMIMAJOR_AXIS":"6925.348","TLE_LINE2":"2 46786  53.0530 247.9613 0006557  37.1233 323.0208 15.06400217 56503","PERIOD":"95.592","ARG_OF_PERICENTER":"37.1233","LAUNCH_DATE":"2020-10-24","REF_FRAME":"TEME","MEAN_ELEMENT_THEORY":"SGP4","NORAD_CAT_ID":"46786","CENTER_NAME":"EARTH","COUNTRY_CODE":"US","RA_OF_ASC_NODE":"247.9613","RCS_SIZE":"LARGE","TLE_LINE1":"1 46786U 20074AZ  21300.55416926  .00000498  00000-0  52456-4 0  9995","APOAPSIS":"551.754","CLASSIFICATION_TYPE":"U","DECAY_DATE":null,"MEAN_ANOMALY":"323.0208","MEAN_MOTION_DDOT":"0.0000000000000","SITE":"AFETR"},{"MEAN_ANOMALY":"0.9869","CLASSIFICATION_TYPE":"U","DECAY_DATE":null,"SITE":"AFETR","MEAN_MOTION_DDOT":"0.0000000000000","APOAPSIS":"551.493","TLE_LINE1":"1 46787U 20074BA  21300.28140251 -.00000714  00000-0 -28909-4 0  9990","NORAD_CAT_ID":"46787","CENTER_NAME":"EARTH","RCS_SIZE":"LARGE","COUNTRY_CODE":"US","RA_OF_ASC_NODE":"249.1894","ARG_OF_PERICENTER":"359.1108","MEAN_ELEMENT_THEORY":"SGP4","REF_FRAME":"TEME","LAUNCH_DATE":"2020-10-24","TIME_SYSTEM":"UTC","EPHEMERIS_TYPE":"0","PERIOD":"95.592","TLE_LINE2":"2 46787  53.0522 249.1894 0006170 359.1108   0.9869 15.06397784 56787","SEMIMAJOR_AXIS":"6925.355","OBJECT_ID":"2020-074BA","OBJECT_NAME":"STARLINK-1899","ECCENTRICITY":"0.00061700","MEAN_MOTION_DOT":"-0.00000714","ELEMENT_SET_NO":"999","MEAN_MOTION":"15.06397784","INCLINATION":"53.0522","PERIAPSIS":"542.947","REV_AT_EPOCH":"5678","OBJECT_TYPE":"PAYLOAD","EPOCH":"2021-10-27T06:45:13.176864","BSTAR":"-0.00002890900000","GP_ID":"188272568","FILE":"3187107"},{"ARG_OF_PERICENTER":"39.6335","LAUNCH_DATE":"2020-10-24","REF_FRAME":"TEME","MEAN_ELEMENT_THEORY":"SGP4","NORAD_CAT_ID":"46788","CENTER_NAME":"EARTH","RA_OF_ASC_NODE":"249.2290","COUNTRY_CODE":"US","RCS_SIZE":"LARGE","TLE_LINE1":"1 46788U 20074BB  21300.27404565 -.00001335  00000-0 -70523-4 0  9990","APOAPSIS":"552.597","DECAY_DATE":null,"CLASSIFICATION_TYPE":"U","MEAN_ANOMALY":"320.5220","MEAN_MOTION_DDOT":"0.0000000000000","SITE":"AFETR","FILE":"3187107","GP_ID":"188273320","BSTAR":"-0.00007052300000","EPOCH":"2021-10-27T06:34:37.544160","OBJECT_TYPE":"PAYLOAD","REV_AT_EPOCH":"5678","PERIAPSIS":"541.839","MEAN_MOTION":"15.06398507","MEAN_MOTION_DOT":"-0.00001335","ELEMENT_SET_NO":"999","ECCENTRICITY":"0.00077670","OBJECT_NAME":"STARLINK-1929","INCLINATION":"53.0567","TIME_SYSTEM":"UTC","EPHEMERIS_TYPE":"0","OBJECT_ID":"2020-074BB","SEMIMAJOR_AXIS":"6925.353","TLE_LINE2":"2 46788  53.0567 249.2290 0007767  39.6335 320.5220 15.06398507 56789","PERIOD":"95.592"},{"NORAD_CAT_ID":"46789","CENTER_NAME":"EARTH","RCS_SIZE":"LARGE","COUNTRY_CODE":"US","RA_OF_ASC_NODE":"278.8971","ARG_OF_PERICENTER":"74.8508","MEAN_ELEMENT_THEORY":"SGP4","REF_FRAME":"TEME","LAUNCH_DATE":"2020-10-24","MEAN_ANOMALY":"285.2659","CLASSIFICATION_TYPE":"U","DECAY_DATE":null,"SITE":"AFETR","MEAN_MOTION_DDOT":"0.0000000000000","APOAPSIS":"548.345","TLE_LINE1":"1 46789U 20074BC  21300.34773482  .00000370  00000-0  43767-4 0  9992","REV_AT_EPOCH":"5637","PERIAPSIS":"546.115","OBJECT_TYPE":"PAYLOAD","EPOCH":"2021-10-27T08:20:44.288448","BSTAR":"0.00004376700000","GP_ID":"188273071","FILE":"3187107","TIME_SYSTEM":"UTC","EPHEMERIS_TYPE":"0","PERIOD":"95.592","TLE_LINE2":"2 46789  53.0539 278.8971 0001610  74.8508 285.2659 15.06394747 56377","SEMIMAJOR_AXIS":"6925.365","OBJECT_ID":"2020-074BC","ECCENTRICITY":"0.00016100","OBJECT_NAME":"STARLINK-1930","MEAN_MOTION_DOT":"0.00000370","ELEMENT_SET_NO":"999","MEAN_MOTION":"15.06394747","INCLINATION":"53.0539"},{"TIME_SYSTEM":"UTC","EPHEMERIS_TYPE":"0","OBJECT_ID":"2020-074BD","SEMIMAJOR_AXIS":"6925.315","TLE_LINE2":"2 46790  53.0552 278.9841 0001670  72.6071 287.5100 15.06410936 56362","PERIOD":"95.591","MEAN_MOTION":"15.06410936","ELEMENT_SET_NO":"999","MEAN_MOTION_DOT":"0.00000694","OBJECT_NAME":"STARLINK-1931","ECCENTRICITY":"0.00016700","INCLINATION":"53.0552","BSTAR":"0.00006546300000","EPOCH":"2021-10-27T07:50:14.905824","OBJECT_TYPE":"PAYLOAD","PERIAPSIS":"546.024","REV_AT_EPOCH":"5636","FILE":"3187107","GP_ID":"188271819","CLASSIFICATION_TYPE":"U","DECAY_DATE":null,"MEAN_ANOMALY":"287.5100","MEAN_MOTION_DDOT":"0.0000000000000","SITE":"AFETR","TLE_LINE1":"1 46790U 20074BD  21300.32656141  .00000694  00000-0  65463-4 0  9990","APOAPSIS":"548.337","NORAD_CAT_ID":"46790","CENTER_NAME":"EARTH","RA_OF_ASC_NODE":"278.9841","COUNTRY_CODE":"US","RCS_SIZE":"LARGE","ARG_OF_PERICENTER":"72.6071","LAUNCH_DATE":"2020-10-24","REF_FRAME":"TEME","MEAN_ELEMENT_THEORY":"SGP4"},{"MEAN_ELEMENT_THEORY":"SGP4","REF_FRAME":"TEME","LAUNCH_DATE":"2020-10-24","ARG_OF_PERICENTER":"68.7883","RCS_SIZE":"LARGE","COUNTRY_CODE":"US","RA_OF_ASC_NODE":"278.9353","NORAD_CAT_ID":"46791","CENTER_NAME":"EARTH","APOAPSIS":"548.264","TLE_LINE1":"1 46791U 20074BE  21300.34130435  .00000712  00000-0  66661-4 0  9998","SITE":"AFETR","MEAN_MOTION_DDOT":"0.0000000000000","MEAN_ANOMALY":"291.3268","CLASSIFICATION_TYPE":"U","DECAY_DATE":null,"GP_ID":"188272069","FILE":"3187107","REV_AT_EPOCH":"5637","PERIAPSIS":"546.156","OBJECT_TYPE":"PAYLOAD","EPOCH":"2021-10-27T08:11:28.695840","BSTAR":"0.00006666100000","INCLINATION":"53.0535","ECCENTRICITY":"0.00015220","OBJECT_NAME":"STARLINK-1933","ELEMENT_SET_NO":"999","MEAN_MOTION_DOT":"0.00000712","MEAN_MOTION":"15.06401100","PERIOD":"95.592","TLE_LINE2":"2 46791  53.0535 278.9353 0001522  68.7883 291.3268 15.06401100 56377","SEMIMAJOR_AXIS":"6925.345","OBJECT_ID":"2020-074BE","EPHEMERIS_TYPE":"0","TIME_SYSTEM":"UTC"},{"INCLINATION":"53.0536","MEAN_MOTION_DOT":"0.00000813","ELEMENT_SET_NO":"999","MEAN_MOTION":"15.06399899","OBJECT_NAME":"STARLINK-1934","ECCENTRICITY":"0.00016800","SEMIMAJOR_AXIS":"6925.349","OBJECT_ID":"2020-074BF","PERIOD":"95.592","TLE_LINE2":"2 46792  53.0536 269.1081 0001680  81.1145 279.0034 15.06399899 56504","TIME_SYSTEM":"UTC","EPHEMERIS_TYPE":"0","FILE":"3187107","GP_ID":"188272821","EPOCH":"2021-10-27T07:14:25.447488","OBJECT_TYPE":"PAYLOAD","BSTAR":"0.00007348300000","REV_AT_EPOCH":"5650","PERIAPSIS":"546.050","TLE_LINE1":"1 46792U 20074BF  21300.30168342  .00000813  00000-0  73483-4 0  9995","APOAPSIS":"548.377","SITE":"AFETR","MEAN_MOTION_DDOT":"0.0000000000000","MEAN_ANOMALY":"279.0034","DECAY_DATE":null,"CLASSIFICATION_TYPE":"U","REF_FRAME":"TEME","LAUNCH_DATE":"2020-10-24","MEAN_ELEMENT_THEORY":"SGP4","ARG_OF_PERICENTER":"81.1145","COUNTRY_CODE":"US","RA_OF_ASC_NODE":"269.1081","RCS_SIZE":"LARGE","NORAD_CAT_ID":"46792","CENTER_NAME":"EARTH"},{"TIME_SYSTEM":"UTC","EPHEMERIS_TYPE":"0","PERIOD":"95.592","TLE_LINE2":"2 46793  53.0561 278.9715 0001444  71.1052 289.0093 15.06395836 56366","SEMIMAJOR_AXIS":"6925.361","OBJECT_ID":"2020-074BG","ECCENTRICITY":"0.00014440","OBJECT_NAME":"STARLINK-1941","ELEMENT_SET_NO":"999","MEAN_MOTION_DOT":"0.00000398","MEAN_MOTION":"15.06395836","INCLINATION":"53.0561","REV_AT_EPOCH":"5636","PERIAPSIS":"546.226","OBJECT_TYPE":"PAYLOAD","EPOCH":"2021-10-27T07:55:33.611232","BSTAR":"0.00004561800000","GP_ID":"188273571","FILE":"3187107","MEAN_ANOMALY":"289.0093","CLASSIFICATION_TYPE":"U","DECAY_DATE":null,"SITE":"AFETR","MEAN_MOTION_DDOT":"0.0000000000000","APOAPSIS":"548.226","TLE_LINE1":"1 46793U 20074BG  21300.33025013  .00000398  00000-0  45618-4 0  9993","CENTER_NAME":"EARTH","NORAD_CAT_ID":"46793","RCS_SIZE":"LARGE","COUNTRY_CODE":"US","RA_OF_ASC_NODE":"278.9715","ARG_OF_PERICENTER":"71.1052","MEAN_ELEMENT_THEORY":"SGP4","REF_FRAME":"TEME","LAUNCH_DATE":"2020-10-24"},{"MEAN_MOTION_DDOT":"0.0000000000000","SITE":"AFETR","CLASSIFICATION_TYPE":"U","DECAY_DATE":null,"MEAN_ANOMALY":"283.7895","APOAPSIS":"548.154","TLE_LINE1":"1 46794U 20074BH  21300.33762225  .00001175  00000-0  97711-4 0  9992","RCS_SIZE":"LARGE","RA_OF_ASC_NODE":"278.9504","COUNTRY_CODE":"US","NORAD_CAT_ID":"46794","CENTER_NAME":"EARTH","MEAN_ELEMENT_THEORY":"SGP4","LAUNCH_DATE":"2020-10-24","REF_FRAME":"TEME","ARG_OF_PERICENTER":"76.3250","TLE_LINE2":"2 46794  53.0539 278.9504 0001408  76.3250 283.7895 15.06411147 56371","PERIOD":"95.591","OBJECT_ID":"2020-074BH","SEMIMAJOR_AXIS":"6925.314","EPHEMERIS_TYPE":"0","TIME_SYSTEM":"UTC","INCLINATION":"53.0539","ECCENTRICITY":"0.00014080","OBJECT_NAME":"STARLINK-1942","MEAN_MOTION":"15.06411147","MEAN_MOTION_DOT":"0.00001175","ELEMENT_SET_NO":"999","REV_AT_EPOCH":"5637","PERIAPSIS":"546.204","BSTAR":"0.00009771100000","EPOCH":"2021-10-27T08:06:10.562400","OBJECT_TYPE":"PAYLOAD","GP_ID":"188272319","FILE":"3187107"}];
